{"fetched_at":"2026-05-30T09:59:46Z","count":1101,"tles":[{"name":"BRO-8","line1":"1 55011U 23001C   26149.63069977  .00036287  00000+0  69813-3 0  9992","line2":"2 55011  97.3232 214.5625 0006490 175.4780 184.6530 15.47803587189335","category":"Other"},{"name":"BRO-11","line1":"1 58264U 23174J   26149.63985880  .00007528  00000+0  28525-3 0  9997","line2":"2 58264  97.3912 226.6563 0008647 272.7736  87.2514 15.27150723141924","category":"Other"},{"name":"ONEWEB-0102","line1":"1 47258U 20100A   26149.53209798 -.00000209  00000+0 -61722-3 0  9997","line2":"2 47258  87.8945 354.3867 0001467  84.7367 275.3929 13.12444272262285","category":"Other"},{"name":"ONEWEB-0209","line1":"1 48215U 21031F   26149.44132908 -.00000048  00000+0 -16315-3 0  9992","line2":"2 48215  87.8943 293.4506 0001868 105.7488 254.3848 13.14504564245914","category":"Other"},{"name":"ONEWEB-0176","line1":"1 48210U 21031A   26149.37789926  .00000183  00000+0  45856-3 0  9997","line2":"2 48210  87.8946 293.4498 0001711  99.3958 260.7365 13.14501981245846","category":"Other"},{"name":"ONEWEB-0115","line1":"1 48042U 21025A   26149.51219933 -.00000264  00000+0 -75694-3 0  9990","line2":"2 48042  87.8945 323.9430 0001807  90.4313 269.7023 13.13469052251147","category":"Other"},{"name":"ONEWEB-0013","line1":"1 45131U 20008A   26149.29655343 -.00000423  00000+0 -12659-2 0  9998","line2":"2 45131  87.8528  56.6352 0002802  70.7936 289.3494 13.09451803303598","category":"Other"},{"name":"ONEWEB-0147","line1":"1 47293U 20100AM  26149.54565356  .00000243  00000+0  64085-3 0  9993","line2":"2 47293  87.8957 354.3499 0001649  83.5765 276.5551 13.12443774262122","category":"Other"},{"name":"BRO-1","line1":"1 44495U 19054A   26148.67663787  .00180701  00000+0  84943-3 0  9993","line2":"2 44495  44.9975  45.4749 0010047 188.8315 171.2414 15.81839323376644","category":"Other"},{"name":"ONEWEB-0066","line1":"1 45424U 20020A   26149.60657187 -.00000487  00000+0 -14100-2 0  9993","line2":"2 45424  87.8906  24.7682 0001800  76.7255 283.4074 13.11417404300242","category":"Other"},{"name":"GOES 19","line1":"1 60133U 24119A   26149.56142142 -.00000237  00000+0  00000+0 0  9998","line2":"2 60133   0.0468 122.8066 0000522 351.5255 259.6739  1.00267842  6774","category":"Weather"},{"name":"MALLIGYONG-1","line1":"1 58400U 23179A   26149.63625762  .00003918  00000+0  17176-3 0  9993","line2":"2 58400  97.3049  31.7071 0010311  93.2825 266.9592 15.22520284139930","category":"Other"},{"name":"GRACE-FO 1","line1":"1 43476U 18047A   26149.55437481  .00004429  00000+0  11704-3 0  9997","line2":"2 43476  88.9934 200.5154 0011221 167.3928 192.7610 15.38120684446937","category":"Other"},{"name":"ASTEX 1","line1":"1 05560U 71089A   26149.51932821  .00000519  00000+0  13167-3 0  9999","line2":"2 05560  92.7006 177.8433 0016124 163.1905 196.9838 14.50835716874029","category":"Other"},{"name":"NAVSTAR 43 (USA 132)","line1":"1 24876U 97035A   26149.25551510 -.00000024  00000+0  00000+0 0  9992","line2":"2 24876  55.9855  99.3153 0101515  56.5922 304.3312  2.00563913211579","category":"GPS"},{"name":"CALIPSO","line1":"1 29108U 06016B   26105.16781536  .00000590  00000+0  10906-3 0  9996","line2":"2 29108  98.4509 118.6797 0001775  99.4388 260.7017 14.69231416 63804","category":"Other"},{"name":"SWIFT","line1":"1 28485U 04047A   26148.83902471  .00066364  00000+0  60117-3 0  9999","line2":"2 28485  20.5545 333.9302 0003532  39.7428 320.3276 15.66281891183821","category":"Other"},{"name":"LAPAN-A2 (IO-86)","line1":"1 40931U 15052B   25151.18580175  .00001241  00000+0  78118-4 0  9995","line2":"2 40931   6.0006  24.0987 0012733 338.8432  21.1169 14.78805930523047","category":"Other"},{"name":"GSAT0212 (GALILEO 16)","line1":"1 41860U 16069B   26148.24149593 -.00000005  00000+0  00000+0 0  9993","line2":"2 41860  55.4848 101.6328 0004710 350.8303   9.1079  1.70473970 59312","category":"GPS"},{"name":"LEMUR-2-STELLA","line1":"1 60533U 24149BT  26149.21560347  .00015438  00000+0  91844-3 0  9996","line2":"2 60533  97.6743 231.5943 0002198 106.8017 253.3454 15.11336422 97634","category":"Other"},{"name":"BLUEWALKER-3","line1":"1 53807U 22111AL  26149.33647929  .00008430  00000+0  23220-3 0  9991","line2":"2 53807  53.2279 122.4525 0007316 109.9602 250.2191 15.38004655207307","category":"Other"},{"name":"COSMOS 2251 DEB","line1":"1 34454U 93036SX  26104.90836000  .00000369  00000+0  12711-3 0  9992","line2":"2 34454  74.0591  50.7644 0033864  85.2864 275.2156 14.39005658898397","category":"Other"},{"name":"STARLINK-1019","line1":"1 44724U 19074M   26133.49071535  .04463885  12214-4  66256-3 0  9991","line2":"2 44724  53.0206 163.7275 0004490 316.2911  43.7777 16.33663314359794","category":"Starlink"},{"name":"IRIDIUM 142","line1":"1 43256U 18030H   26149.48189029  .00000329  00000+0  11027-3 0  9992","line2":"2 43256  86.3940 298.1735 0001980  91.4913 268.6510 14.34219341427454","category":"Other"},{"name":"IRIDIUM 122","line1":"1 42957U 17061C   26149.08623543  .00000059  00000+0  14152-4 0  9995","line2":"2 42957  86.3987  33.1717 0002243  83.5563 276.5888 14.34217759452045","category":"Other"},{"name":"O3B FM6","line1":"1 40081U 14038C   26149.28921334 -.00000022  00000+0  00000+0 0  9996","line2":"2 40081   0.0488 351.0923 0002622  74.8883 294.0479  5.00115769216882","category":"Other"},{"name":"TURKMENALEM52E/MONACOSAT","line1":"1 40617U 15023A   26149.51530801  .00000115  00000+0  00000+0 0  9999","line2":"2 40617   0.0273  57.3105 0003200   5.9746  61.3020  1.00269725 40669","category":"Other"},{"name":"SKYTERRA 1","line1":"1 37218U 10061A   26149.57588380 -.00000110  00000+0  00000+0 0  9996","line2":"2 37218   5.0869  50.8791 0003141   7.5743 294.6620  1.00271411 57004","category":"Other"},{"name":"BEIDOU-3 M17","line1":"1 43706U 18093A   26144.20755414  .00000050  00000+0  00000+0 0  9999","line2":"2 43706  54.1673 183.1096 0009837 291.2944 109.0036  1.86228425 51096","category":"GPS"},{"name":"MOLNIYA 3-50","line1":"1 25847U 99036A   26102.22868528  .00000498  00000+0  00000+0 0  9994","line2":"2 25847  63.5111 162.3652 6754335 277.5683  16.2352  2.00596791196094","category":"Other"},{"name":"STARLINK-2169","line1":"1 47752U 21017AG  26149.34928890  .00095516  00000+0  12478-2 0  9990","line2":"2 47752  53.1548 179.0175 0005899  23.2154 336.9124 15.57892743290382","category":"Starlink"},{"name":"KEPLER-16 (ASTRAEUS)","line1":"1 51057U 22002CB  23361.73878944  .00011196  00000+0  42995-3 0  9998","line2":"2 51057  97.4160  66.5425 0004556 285.3284  74.7451 15.26610701108205","category":"Other"},{"name":"COSMOS 2564 [GLONASS-M]","line1":"1 54377U 22161A   26149.00149854  .00000085  00000+0  00000+0 0  9992","line2":"2 54377  64.7401 193.3486 0011902 223.6107 136.3799  2.13102098 27225","category":"GPS"},{"name":"ASTRA 1P (SES-24)","line1":"1 60086U 24115A   26148.93840712  .00000130  00000+0  00000+0 0  9990","line2":"2 60086   0.0707  26.3195 0000894 332.3816 244.8030  1.00271207  7007","category":"Other"},{"name":"GSAT0226 (GALILEO 31)","line1":"1 61183U 24167B   26148.73579094  .00000018  00000+0  00000+0 0  9991","line2":"2 61183  55.1884 221.8547 0002507 221.2054 141.0234  1.70474598 10529","category":"GPS"},{"name":"PANDORA","line1":"1 67395U 26004AJ  26149.54393803  .00001081  00000+0  12362-3 0  9995","line2":"2 67395  97.8034 148.4926 0005175 173.6821 186.4461 14.88034335 20509","category":"Other"},{"name":"RASSVET-3 12","line1":"1 68371U 26061M   26149.60255808 -.00281847  00000+0 -45955-2 0  9997","line2":"2 68371  82.2975  33.8057 0009384 310.0023  50.0405 15.53515580 10574","category":"Other"},{"name":"SENTINEL-6B","line1":"1 66514U 25264A   26149.42568108 -.00000017  00000+0  19326-3 0  9999","line2":"2 66514  66.0388 174.1469 0008063 269.3511  90.6580 12.80929355 24762","category":"Other"},{"name":"NUSAT-26 (M SOMERVILLE)","line1":"1 52184U 22033AD  26149.61714094  .00019665  00000+0  46998-3 0  9999","line2":"2 52184  97.2358 228.8520 0004340 319.2985  40.7937 15.41523144101845","category":"Other"},{"name":"STARLINK-37410","line1":"1 68823U 26089X   26149.50003472 -.02003070  00000+0 -17943-1 0  9993","line2":"2 68823  97.2843 356.3862 0001517  70.6470 355.7996 15.71295905  5938","category":"Starlink"},{"name":"ELECTRON KICK STAGE R/B","line1":"1 68801U 26088K   26132.69883670  .12520094  21931-5  24337-3 0  9994","line2":"2 68801  97.4647 285.2889 0040704 216.2899 143.5640 16.42313001  3104","category":"Other"},{"name":"NAVSTAR 62 (USA 201)","line1":"1 32711U 08012A   26149.19107356  .00000075  00000+0  00000+0 0  9999","line2":"2 32711  54.4945 150.6835 0210824 247.5975 110.1757  2.00571993133376","category":"GPS"},{"name":"GOES 17","line1":"1 43226U 18022A   26149.55856141 -.00000172  00000+0  00000+0 0  9996","line2":"2 43226   0.8923  85.9854 0000783 354.2407 278.4515  1.00271403 30231","category":"Weather"},{"name":"GOES 18","line1":"1 51850U 22021A   26149.52934905  .00000108  00000+0  00000+0 0  9992","line2":"2 51850   0.0097  74.7525 0000669  33.0636 192.8056  1.00273021  6406","category":"Weather"},{"name":"LEMUR-2-SAOIRSEDH5GUO","line1":"1 47453U 21006AS  23353.76724126  .07845664  24391-5  19059-2 0  9993","line2":"2 47453  97.3523  60.6700 0008123 285.1424  74.8971 16.29339768161663","category":"Other"},{"name":"METEOR-M 2","line1":"1 40069U 14037A   26149.63298572  .00000155  00000+0  90105-4 0  9997","line2":"2 40069  98.5098 126.0294 0007024  89.5257 270.6726 14.21455462616684","category":"Weather"},{"name":"ALSAT-1N","line1":"1 41789U 16059G   26105.12041928  .00000580  00000+0  10600-3 0  9993","line2":"2 41789  97.8027 111.2822 0026882  32.4888 327.7966 14.69202225510740","category":"Other"},{"name":"GPS BIIF-11","line1":"1 41019U 15062A   26148.83267351 -.00000099  00000+0  00000+0 0  9992","line2":"2 41019  56.9467  31.5567 0111488 231.2533 127.7866  2.00567129 77444","category":"GPS"}]}